SIRION PATHFINDER-2     
1 43759U 18099B   26169.70132068  .00003653  00000+0  20156-3 0  9999
2 43759  97.4247 218.7229 0007159 298.4838  61.5672 15.14558383412858
CORVUS BC4              
1 43767U 18099K   26169.90841308  .00003066  00000+0  17962-3 0  9993
2 43767  97.4062 212.8385 0008109   7.7786 352.3570 15.12507127412664
M2 PATHFINDER           
1 45727U 20037E   26169.77589096  .00001252  00000+0  93452-4 0  9998
2 45727  97.8146   1.0255 0012578 141.5732 218.6392 15.04680225325735
NETSAT-4                
1 46504U 20068U   26169.93957668  .00013444  00000+0  29780-3 0  9996
2 46504  97.8604 178.3212 0003638 330.0915  30.0123 15.43911381316049
NETSAT-3                
1 46505U 20068V   26169.94719603  .00014435  00000+0  33242-3 0  9992
2 46505  97.8651 176.5434 0003969 354.3886   5.7315 15.42729278315953
NETSAT-1                
1 46506U 20068W   26169.43948322  .00009731  00000+0  29212-3 0  9994
2 46506  97.8747 170.3121 0004889  28.7816 331.3694 15.34667272315495
NETSAT-2                
1 46507U 20068X   26169.97720623  .00017754  00000+0  36480-3 0  9995
2 46507  97.8613 178.2623 0003290  20.9821 339.1561 15.46061817316011
GREENCUBE (IO-117)      
1 53109U 22080E   26169.42938941 -.00000003  00000+0  00000+0 0  9996
2 53109  70.1442 297.8130 0008904 289.4279  70.5418  6.42583246 92141
SITRO-AIS 5 (KATYS)     
1 57176U 23091L   26169.90186196  .00009257  00000+0  32570-3 0  9997
2 57176  97.5056 233.8178 0012742  98.2848 261.9837 15.29488777164608
SITRO-AIS 6 (CHIRKIN)   
1 57192U 23091AC  26169.95034170  .00007619  00000+0  29882-3 0  9996
2 57192  97.5063 232.9764 0013100 101.0843 259.1869 15.25961511164558
SITRO-AIS 8 (ANOKHIN)   
1 57193U 23091AD  26169.91588832  .00011494  00000+0  37164-3 0  9990
2 57193  97.5052 235.4274 0011760  94.7065 265.5520 15.32175361164716
SITRO-AIS 7 (FARTUSHNIY)
1 57194U 23091AE  26169.95385080  .00007429  00000+0  29418-3 0  9991
2 57194  97.5060 232.8041 0012962 101.9813 258.2878 15.25649375164545
SITRO-AIS 10 (BURDAEV)  
1 57199U 23091AK  26169.94015577  .00015792  00000+0  41494-3 0  9996
2 57199  97.5077 240.5243 0007394  75.0063 285.2000 15.38666790165035
SITRO-AIS 9 (SHCHUKIN)  
1 57201U 23091AM  26169.96711616  .00015283  00000+0  40811-3 0  9996
2 57201  97.5076 240.2807 0007649  75.1418 285.0674 15.38173893165020
SITRO-AIS 12 (SMIRENNIY)
1 57204U 23091AQ  26169.95739878  .00015540  00000+0  41104-3 0  9990
2 57204  97.5089 240.7390 0007168  70.2278 289.9740 15.38466797165042
SITRO-AIS 11 (SHEFFER)  
1 57208U 23091AU  26169.97032478  .00015651  00000+0  40827-3 0  9992
2 57208  97.5087 240.9999 0007062  70.0368 290.1637 15.38892933165068
SITRO-AIS 25            
1 59066U 24039R   26169.98413789  .00002175  00000+0  17157-3 0  9995
2 59066  95.3913 236.3274 0143284 322.4295  36.6984 14.93520908124996
SITRO-AIS 26            
1 59067U 24039S   26169.98575574  .00002116  00000+0  16783-3 0  9996
2 59067  95.3910 236.2258 0143641 323.0139  36.1249 14.93316634124983
SITRO-AIS 27            
1 59068U 24039T   26169.95549441  .00001921  00000+0  15125-3 0  9990
2 59068  95.3914 236.4775 0142682 321.7195  37.3967 14.93736899125008
SITRO-AIS 28            
1 59071U 24039U   26169.93290036  .00002242  00000+0  17599-3 0  9999
2 59071  95.3912 236.5094 0142553 321.6314  37.4837 14.93770717125008
GRBBETA                 
1 60237U 24128C   26169.41466747  .00002322  00000+0  16766-3 0  9995
2 60237  61.9881 211.9597 0040487 134.9163 225.5227 15.06645417106457
OOV-CUBE (TUBSAT-30)    
1 60240U 24128F   26169.58586730  .00001416  00000+0  11902-3 0  9992
2 60240  61.9932 220.6959 0044464 134.0792 226.3973 15.02778203106324
ROBUSTA-3A (MEDITERRAN*)
1 60243U 24128J   26169.78852314  .00004083  00000+0  24711-3 0  9996
2 60243  61.9845 202.5810 0041220 128.2234 232.2584 15.11688886106666
LASARSAT                
1 62391U 24247Q   26167.97623210  .00026221  00000+0  52389-3 0  9994
2 62391  44.9742 263.4006 0008180 330.0323  30.0098 15.46364825 83280
CROCUBE                 
1 62394U 24247T   26168.68403664  .00028750  00000+0  53655-3 0  9991
2 62394  44.9716 256.7472 0007967 338.3414  21.7139 15.48292245 83427
FORESAIL-1 PRIME        
1 66778U 25276DS  26169.51197862  .00003659  00000+0  17953-3 0  9999
2 66778  97.4198 242.7588 0003953 100.5303 259.6377 15.18712200 30607
KNACKSAT-2              
1 67683U 98067XZ  26168.60673955  .00040994  00000+0  49993-3 0  9996
2 67683  51.6314 292.3670 0009088 217.1010 142.9356 15.60014370 20344
